[{"OBJECT_NAME":"STARLINK-6183","OBJECT_ID":"2023-083AF","EPOCH":"2026-03-09T22:00:01.999584","MEAN_MOTION":15.10514117,"ECCENTRICITY":0.00016616,"INCLINATION":43.0003,"RA_OF_ASC_NODE":67.7507,"ARG_OF_PERICENTER":253.845,"MEAN_ANOMALY":52.3183,"EPHEMERIS_TYPE":0,"CLASSIFICATION_TYPE":"U","NORAD_CAT_ID":56905,"ELEMENT_SET_NO":999,"REV_AT_EPOCH":557,"BSTAR":0.0041494241,"MEAN_MOTION_DOT":0.0007004,"MEAN_MOTION_DDOT":0},{"OBJECT_NAME":"DELTA 1 DEB","OBJECT_ID":"1977-065F","EPOCH":"2026-03-07T02:52:17.224320","MEAN_MOTION":14.18507323,"ECCENTRICITY":0.04728611,"INCLINATION":28.2353,"RA_OF_ASC_NODE":348.8743,"ARG_OF_PERICENTER":258.4635,"MEAN_ANOMALY":96.2486,"EPHEMERIS_TYPE":0,"CLASSIFICATION_TYPE":"U","NORAD_CAT_ID":10177,"ELEMENT_SET_NO":999,"REV_AT_EPOCH":28253,"BSTAR":0.00045332174,"MEAN_MOTION_DOT":3.156e-5,"MEAN_MOTION_DDOT":0}]
